FLOCK 4G-26             
1 62633U 25009AA  26068.80489479  .00011283  00000+0  42469-3 0  9999
2 62633  97.4054 151.3913 0001988 299.1273  60.9767 15.27281631 63733
STARLINK-36516          
1 67455U 26008L   26068.42242699  .00025226  00000+0  92264-3 0  9995
2 67455  42.9992 206.5347 0002006 299.4788  60.5863 15.27594547  9530
